1 41175U 15079B   17345.77789513 +.00000075 +00000-0 +00000-0 0  9999
2 41175 054.9193 186.8078 0002244 321.8927 038.1561 01.70473437012354
